0 COSMOS 2251 DEB
1 34883U 93036ACW 13281.86421446  .00002359  00000-0  13263-2 0  7508
2 34883 074.1838 339.9178 0177190 323.8227 156.6297 14.03393426236205
0 COSMOS 2251 DEB
1 34883U 93036ACW 13283.49203883  .00003122  00000-0  17505-2 0  7515
2 34883 074.1846 337.1106 0177075 320.5858 100.7769 14.03407045236433
0 COSMOS 2251 DEB
1 34883U 93036ACW 13288.11895753  .00004808  00000-0  26846-2 0  7545
2 34883 074.1841 329.1269 0177490 311.3840 077.3852 14.03436344237087
0 COSMOS 2251 DEB
1 34883U 93036ACW 13289.56948875  .00005069  00000-0  28290-2 0  7555
2 34883 074.1840 326.6245 0177593 308.4900 206.0447 14.03445567237280
0 COSMOS 2251 DEB
1 34883U 93036ACW 13290.56980416  .00005155  00000-0  28756-2 0  7568
2 34883 074.1834 324.8982 0177637 306.5146 220.0448 14.03453784237424
0 COSMOS 2251 DEB
1 34883U 93036ACW 13294.47071825  .00006161  00000-0  34294-2 0  7570
2 34883 074.1837 318.1649 0178099 298.8084 129.3421 14.03486716237973
